{
  "type": "FeatureCollection",
  "features": [
    {
      "type": "Feature",
      "properties": {
        "norad_id": 26766,
        "name": "INTELSAT 10 (IS-10)",
        "group": "intelsat",
        "lat": 5.636721736730021,
        "lon": 101.81765250273973,
        "alt_km": 36155.75835089138,
        "timestamp": "2025-12-02T13:52:16.942911+00:00",
        "meta_object_name": "INTELSAT 10 (IS-10)",
        "meta_object_id": "2001-019A",
        "meta_epoch": "2025-12-01T11:39:24.752160",
        "meta_mean_motion": 0.99077519,
        "meta_eccentricity": 0.00076044,
        "meta_inclination": 8.6009,
        "meta_ra_of_asc_node": 61.2665,
        "meta_arg_of_pericenter": 217.709,
        "meta_mean_anomaly": 153.5892,
        "meta_ephemeris_type": 0,
        "meta_classification_type": "U",
        "meta_norad_cat_id": 26766,
        "meta_element_set_no": 999,
        "meta_rev_at_epoch": 4362,
        "meta_bstar": 0,
        "meta_mean_motion_dot": -9.5e-07,
        "meta_mean_motion_ddot": 0,
        "tle_line1": "1 26766U 01019A   25335.48570315 -.00000095  00000+0  00000+0 0  9992",
        "tle_line2": "2 26766   8.6009  61.2665 0007604 217.7090 153.5892  0.99077519 43626"
      },
      "geometry": {
        "type": "Point",
        "coordinates": [
          101.81765250273973,
          5.636721736730021
        ]
      }
    },
    {
      "type": "Feature",
      "properties": {
        "norad_id": 26900,
        "name": "INTELSAT 902 (IS-902)",
        "group": "intelsat",
        "lat": 2.3119836022299314,
        "lon": -130.30498286565424,
        "alt_km": 35769.103760002086,
        "timestamp": "2025-12-02T13:52:16.942934+00:00",
        "meta_object_name": "INTELSAT 902 (IS-902)",
        "meta_object_id": "2001-039A",
        "meta_epoch": "2025-12-01T16:59:59.311968",
        "meta_mean_motion": 1.00270327,
        "meta_eccentricity": 0.00043097,
        "meta_inclination": 5.6187,
        "meta_ra_of_asc_node": 74.2002,
        "meta_arg_of_pericenter": 175.119,
        "meta_mean_anomaly": 26.3816,
        "meta_ephemeris_type": 0,
        "meta_classification_type": "U",
        "meta_norad_cat_id": 26900,
        "meta_element_set_no": 999,
        "meta_rev_at_epoch": 8871,
        "meta_bstar": 0,
        "meta_mean_motion_dot": -2.63e-06,
        "meta_mean_motion_ddot": 0,
        "tle_line1": "1 26900U 01039A   25335.70832537 -.00000263  00000+0  00000+0 0  9993",
        "tle_line2": "2 26900   5.6187  74.2002 0004309 175.1190  26.3816  1.00270327 88713"
      },
      "geometry": {
        "type": "Point",
        "coordinates": [
          -130.30498286565424,
          2.3119836022299314
        ]
      }
    },
    {
      "type": "Feature",
      "properties": {
        "norad_id": 27380,
        "name": "INTELSAT 904 (IS-904)",
        "group": "intelsat",
        "lat": 0.34622111315203125,
        "lon": -111.74209046129211,
        "alt_km": 35780.71664324663,
        "timestamp": "2025-12-02T13:52:16.942949+00:00",
        "meta_object_name": "INTELSAT 904 (IS-904)",
        "meta_object_id": "2002-007A",
        "meta_epoch": "2025-12-02T03:21:43.155648",
        "meta_mean_motion": 1.0026967,
        "meta_eccentricity": 0.0001502,
        "meta_inclination": 6.4264,
        "meta_ra_of_asc_node": 71.5525,
        "meta_arg_of_pericenter": 197.1555,
        "meta_mean_anomaly": 181.4839,
        "meta_ephemeris_type": 0,
        "meta_classification_type": "U",
        "meta_norad_cat_id": 27380,
        "meta_element_set_no": 999,
        "meta_rev_at_epoch": 4979,
        "meta_bstar": 0,
        "meta_mean_motion_dot": -2.07e-06,
        "meta_mean_motion_ddot": 0,
        "tle_line1": "1 27380U 02007A   25336.14008282 -.00000207  00000+0  00000+0 0  9991",
        "tle_line2": "2 27380   6.4264  71.5525 0001502 197.1555 181.4839  1.00269670 49794"
      },
      "geometry": {
        "type": "Point",
        "coordinates": [
          -111.74209046129211,
          0.34622111315203125
        ]
      }
    },
    {
      "type": "Feature",
      "properties": {
        "norad_id": 27426,
        "name": "DIRECTV 5 (TEMPO 1)",
        "group": "intelsat",
        "lat": 4.36044354604921,
        "lon": 169.57005831771184,
        "alt_km": 35787.19312215622,
        "timestamp": "2025-12-02T13:52:16.942962+00:00",
        "meta_object_name": "DIRECTV 5 (TEMPO 1)",
        "meta_object_id": "2002-023A",
        "meta_epoch": "2025-12-02T06:24:44.894592",
        "meta_mean_motion": 1.00271141,
        "meta_eccentricity": 0.00036927,
        "meta_inclination": 4.3732,
        "meta_ra_of_asc_node": 77.7757,
        "meta_arg_of_pericenter": 187.4752,
        "meta_mean_anomaly": 152.1876,
        "meta_ephemeris_type": 0,
        "meta_classification_type": "U",
        "meta_norad_cat_id": 27426,
        "meta_element_set_no": 999,
        "meta_rev_at_epoch": 8614,
        "meta_bstar": 0,
        "meta_mean_motion_dot": -3.7e-07,
        "meta_mean_motion_ddot": 0,
        "tle_line1": "1 27426U 02023A   25336.26718628 -.00000037  00000+0  00000+0 0  9996",
        "tle_line2": "2 27426   4.3732  77.7757 0003692 187.4752 152.1876  1.00271141 86142"
      },
      "geometry": {
        "type": "Point",
        "coordinates": [
          169.57005831771184,
          4.36044354604921
        ]
      }
    },
    {
      "type": "Feature",
      "properties": {
        "norad_id": 27438,
        "name": "INTELSAT 905 (IS-905)",
        "group": "intelsat",
        "lat": 5.893316347322439,
        "lon": 142.4001169028918,
        "alt_km": 35790.346769324715,
        "timestamp": "2025-12-02T13:52:16.942974+00:00",
        "meta_object_name": "INTELSAT 905 (IS-905)",
        "meta_object_id": "2002-027A",
        "meta_epoch": "2025-12-01T11:26:53.712384",
        "meta_mean_motion": 1.00272635,
        "meta_eccentricity": 0.00030034,
        "meta_inclination": 6.255,
        "meta_ra_of_asc_node": 72.1839,
        "meta_arg_of_pericenter": 185.4215,
        "meta_mean_anomaly": 207.5171,
        "meta_ephemeris_type": 0,
        "meta_classification_type": "U",
        "meta_norad_cat_id": 27438,
        "meta_element_set_no": 999,
        "meta_rev_at_epoch": 4938,
        "meta_bstar": 0,
        "meta_mean_motion_dot": 1.14e-06,
        "meta_mean_motion_ddot": 0,
        "tle_line1": "1 27438U 02027A   25335.47701056  .00000114  00000+0  00000+0 0  9997",
        "tle_line2": "2 27438   6.2550  72.1839 0003003 185.4215 207.5171  1.00272635 49389"
      },
      "geometry": {
        "type": "Point",
        "coordinates": [
          142.4001169028918,
          5.893316347322439
        ]
      }
    },
    {
      "type": "Feature",
      "properties": {
        "norad_id": 27445,
        "name": "GALAXY 3C (G-3C)",
        "group": "intelsat",
        "lat": 3.1192221008454553,
        "lon": -175.104080699357,
        "alt_km": 35780.61001207639,
        "timestamp": "2025-12-02T13:52:16.942986+00:00",
        "meta_object_name": "GALAXY 3C (G-3C)",
        "meta_object_id": "2002-030A",
        "meta_epoch": "2025-12-02T06:29:06.976896",
        "meta_mean_motion": 1.00270422,
        "meta_eccentricity": 0.00013106,
        "meta_inclination": 3.2361,
        "meta_ra_of_asc_node": 80.6132,
        "meta_arg_of_pericenter": 97.0869,
        "meta_mean_anomaly": 256.1013,
        "meta_ephemeris_type": 0,
        "meta_classification_type": "U",
        "meta_norad_cat_id": 27445,
        "meta_element_set_no": 999,
        "meta_rev_at_epoch": 4451,
        "meta_bstar": 0,
        "meta_mean_motion_dot": -1.32e-06,
        "meta_mean_motion_ddot": 0,
        "tle_line1": "1 27445U 02030A   25336.27021964 -.00000132  00000+0  00000+0 0  9992",
        "tle_line2": "2 27445   3.2361  80.6132 0001310  97.0869 256.1013  1.00270422 44513"
      },
      "geometry": {
        "type": "Point",
        "coordinates": [
          -175.104080699357,
          3.1192221008454553
        ]
      }
    },
    {
      "type": "Feature",
      "properties": {
        "norad_id": 27513,
        "name": "INTELSAT 906 (IS-906)",
        "group": "intelsat",
        "lat": -5.293407595757045,
        "lon": -16.073151475584204,
        "alt_km": 35780.9198275978,
        "timestamp": "2025-12-02T13:52:16.942999+00:00",
        "meta_object_name": "INTELSAT 906 (IS-906)",
        "meta_object_id": "2002-041A",
        "meta_epoch": "2025-12-02T00:41:51.813024",
        "meta_mean_motion": 1.00272894,
        "meta_eccentricity": 0.00061114,
        "meta_inclination": 5.3019,
        "meta_ra_of_asc_node": 75.3582,
        "meta_arg_of_pericenter": 191.023,
        "meta_mean_anomaly": 239.354,
        "meta_ephemeris_type": 0,
        "meta_classification_type": "U",
        "meta_norad_cat_id": 27513,
        "meta_element_set_no": 999,
        "meta_rev_at_epoch": 8505,
        "meta_bstar": 0,
        "meta_mean_motion_dot": 3.2e-07,
        "meta_mean_motion_ddot": 0,
        "tle_line1": "1 27513U 02041A   25336.02907191  .00000032  00000+0  00000+0 0  9996",
        "tle_line2": "2 27513   5.3019  75.3582 0006111 191.0230 239.3540  1.00272894 85050"
      },
      "geometry": {
        "type": "Point",
        "coordinates": [
          -16.073151475584204,
          -5.293407595757045
        ]
      }
    }
  ]
}